{"type":"FeatureCollection", "features": [
{"type":"Feature","geometry":{"type":"MultiPolygon","coordinates":[[[[8.4175,55.0565],[8.3986,55.0529],[8.3869,55.0401],[8.3458,54.9787],[8.3281,54.9593],[8.2981,54.9093],[8.2914,54.8918],[8.2869,54.8574],[8.2797,54.7518],[8.2947,54.7474],[8.3003,54.776],[8.2925,54.7851],[8.3003,54.8035],[8.2942,54.8276],[8.3047,54.8582],[8.3158,54.8763],[8.3658,54.8754],[8.3764,54.8596],[8.4036,54.8482],[8.4519,54.8571],[8.4814,54.8726],[8.5103,54.8821],[8.5903,54.8851],[8.6025,54.8787],[8.6053,54.8413],[8.6486,54.8101],[8.6608,54.7935],[8.6753,54.7893],[8.6886,54.7754],[8.7069,54.7451],[8.6919,54.7293],[8.7231,54.7135],[8.7447,54.7082],[8.7514,54.6826],[8.7792,54.6665],[8.8147,54.6535],[8.8264,54.6312],[8.8408,54.619],[8.8314,54.6082],[8.8597,54.5996],[8.8725,54.6032],[8.8842,54.5854],[8.8697,54.5632],[8.8786,54.5418],[8.8719,54.5282],[8.8503,54.5137],[8.8131,54.5032],[8.8186,54.4871],[8.8064,54.4704],[8.8281,54.4621],[8.8964,54.459],[8.9181,54.4649],[8.9408,54.4901],[8.9592,54.4974],[8.9636,54.5132],[8.9903,54.511],[9.0125,54.4904],[9.0108,54.4751],[8.9864,54.459],[8.9614,54.4579],[8.9092,54.4193],[8.8936,54.4121],[8.8564,54.4032],[8.8153,54.4129],[8.7442,54.4065],[8.7186,54.4024],[8.6708,54.4007],[8.6086,54.3862],[8.6025,54.3729],[8.6431,54.3671],[8.6753,54.3668],[8.6669,54.3551],[8.6319,54.3418],[8.6042,54.3579],[8.5875,54.3379],[8.5808,54.3135],[8.5831,54.2993],[8.6053,54.2865],[8.6236,54.291],[8.6453,54.2735],[8.6886,54.2687],[8.7031,54.2857],[8.7436,54.2901],[8.7931,54.2821],[8.8142,54.2899],[8.8314,54.2893],[8.8442,54.2651],[8.8758,54.2732],[8.9258,54.2988],[8.9386,54.2837],[8.9031,54.2601],[8.8442,54.2579],[8.8325,54.2476],[8.8381,54.2321],[8.8347,54.2179],[8.8153,54.2026],[8.8075,54.1732],[8.8181,54.1671],[8.8258,54.1449],[8.8614,54.1221],[8.8958,54.134],[8.9275,54.1318],[8.9525,54.0904],[8.9858,54.0612],[8.9825,54.0465],[8.9664,54.0357],[8.9419,54.0349],[8.9242,54.0429],[8.8803,54.0462],[8.8414,54.0371],[8.8308,54.0215],[8.8525,53.9932],[8.8769,53.979],[8.8769,53.9646],[8.8892,53.9571],[8.9064,53.9335],[8.9503,53.9024],[8.9719,53.8924],[9.0514,53.899],[9.0958,53.8882],[9.0997,53.8629],[9.0531,53.8532],[9.0164,53.836],[8.9781,53.8407],[8.9192,53.8301],[8.8931,53.8285],[8.7869,53.8338],[8.7586,53.8424],[8.7269,53.8571],[8.7169,53.8696],[8.6836,53.8835],[8.6825,53.8918],[8.6364,53.886],[8.6081,53.8787],[8.6047,53.871],[8.5703,53.8451],[8.5458,53.8151],[8.5386,53.7879],[8.5219,53.7585],[8.5225,53.7504],[8.5008,53.726],[8.4836,53.6943],[8.4836,53.6557],[8.5064,53.6271],[8.5253,53.5968],[8.5314,53.5799],[8.5769,53.5376],[8.5608,53.5104],[8.5197,53.501],[8.5219,53.5126],[8.5569,53.5249],[8.5525,53.5357],[8.5047,53.5515],[8.4569,53.5546],[8.3836,53.5746],[8.3464,53.6101],[8.3058,53.6182],[8.2803,53.6126],[8.2431,53.5824],[8.2331,53.524],[8.2603,53.5182],[8.3003,53.5257],[8.3164,53.5146],[8.3158,53.4643],[8.3086,53.4487],[8.2964,53.4426],[8.2953,53.4265],[8.2825,53.4146],[8.2525,53.399],[8.2086,53.4021],[8.1575,53.4449],[8.1419,53.4521],[8.0992,53.4457],[8.0786,53.4601],[8.0642,53.4782],[8.0608,53.5004],[8.0936,53.5021],[8.1608,53.5182],[8.1697,53.5343],[8.1608,53.5576],[8.1514,53.5604],[8.1403,53.5799],[8.1186,53.6015],[8.1131,53.6149],[8.0869,53.6443],[8.0447,53.6418],[8.0286,53.6618],[8.0203,53.6893],[8.0314,53.7054],[8.0158,53.7107],[7.9653,53.716],[7.9108,53.7176],[7.8314,53.711],[7.7936,53.7101],[7.7581,53.7015],[7.7286,53.6993],[7.7075,53.7021],[7.6731,53.6976],[7.6275,53.6876],[7.6097,53.6868],[7.5636,53.6749],[7.5303,53.6715],[7.4753,53.6835],[7.3758,53.6829],[7.3519,53.686],[7.2958,53.6804],[7.2819,53.674],[7.2447,53.6688],[7.1831,53.6407],[7.1731,53.6299],[7.1369,53.6046],[7.1125,53.5943],[7.0925,53.5807],[7.0892,53.571],[7.1342,53.5387],[7.1275,53.5293],[7.0875,53.5224],[7.0675,53.5254],[7.0503,53.5349],[7.0342,53.5332],[7.0497,53.5076],[7.0253,53.4835],[7.0264,53.4749],[7.0114,53.4307],[7.0147,53.4143],[7.0075,53.3774],[6.9986,53.3613],[7.0247,53.3365],[7.0608,53.3346],[7.1531,53.3354],[7.2058,53.3338],[7.2492,53.3299],[7.2408,53.304],[7.2303,53.2926],[7.2364,53.2765],[7.2281,53.2582],[7.2053,53.2388],[7.2188,53.2336],[7.2716,53.2286],[7.2849,53.1886],[7.2703,53.1744],[7.2927,53.1629],[7.2632,53.16],[7.2413,53.1423],[7.2272,53.1172],[7.2566,53.0984],[7.2493,53.066],[7.249,53.0443],[7.2555,53.0227],[7.2549,53.0011],[7.2404,52.9724],[7.2122,52.9329],[7.1366,52.8754],[7.0943,52.8465],[7.1003,52.8358],[7.0804,52.8139],[7.0753,52.7174],[7.0631,52.6472],[7.0519,52.6358],[7.0209,52.6387],[6.9879,52.6498],[6.9488,52.6426],[6.9052,52.6554],[6.8831,52.6571],[6.8596,52.6527],[6.7866,52.6562],[6.7679,52.6481],[6.7438,52.6471],[6.7193,52.6296],[6.7326,52.6093],[6.7243,52.5906],[6.7497,52.5732],[6.7302,52.5668],[6.7181,52.5522],[6.6838,52.5561],[6.7104,52.5281],[6.7079,52.5014],[6.7136,52.4844],[6.7649,52.4649],[6.8111,52.4609],[6.8542,52.4626],[6.8867,52.4491],[6.9313,52.4398],[6.9628,52.4451],[6.9876,52.4728],[7.0001,52.4732],[7.0209,52.4325],[7.0333,52.4253],[7.0432,52.4069],[7.0643,52.4007],[7.0791,52.3827],[7.0805,52.3572],[7.0647,52.3415],[7.0526,52.3214],[7.0297,52.2943],[7.0449,52.2575],[7.0711,52.2435],[7.0649,52.2358],[7.0296,52.227],[6.9994,52.2296],[6.9884,52.2254],[6.9689,52.1905],[6.9377,52.1787],[6.9164,52.178],[6.8866,52.1568],[6.8819,52.1319],[6.853,52.1198],[6.7685,52.1208],[6.7695,52.1096],[6.7597,52.0869],[6.7428,52.0751],[6.7007,52.0738],[6.6982,52.0401],[6.7222,52.0408],[6.7594,52.0307],[6.817,51.9987],[6.8354,51.9955],[6.8384,51.9656],[6.8087,51.961],[6.7993,51.9344],[6.7772,51.915],[6.7652,51.9147],[6.7427,51.8991],[6.7119,51.9057],[6.6924,51.9202],[6.6576,51.908],[6.5927,51.8949],[6.5533,51.8827],[6.5018,51.859],[6.4803,51.8546],[6.4571,51.8689],[6.4391,51.8684],[6.4204,51.8754],[6.3973,51.8714],[6.4105,51.8537],[6.4105,51.8359],[6.3699,51.8393],[6.3529,51.8545],[6.3105,51.851],[6.305,51.8707],[6.2786,51.8761],[6.2482,51.8694],[6.2185,51.8675],[6.2018,51.8842],[6.169,51.9029],[6.1501,51.9045],[6.1181,51.8989],[6.1194,51.8901],[6.1446,51.8764],[6.167,51.8586],[6.169,51.845],[6.1101,51.847],[6.0682,51.8649],[6.061,51.8516],[6.033,51.8429],[6.0012,51.8285],[5.9721,51.8319],[5.9646,51.8244],[5.9709,51.8094],[5.9924,51.7951],[5.9997,51.7644],[5.9689,51.7492],[5.9695,51.7379],[6.001,51.738],[6.0365,51.7275],[6.0416,51.7156],[6.0329,51.7029],[6.0354,51.6828],[6.0515,51.6726],[6.1018,51.6606],[6.1188,51.6605],[6.1056,51.6227],[6.091,51.6052],[6.1569,51.5692],[6.1793,51.5409],[6.1952,51.5348],[6.2204,51.5092],[6.2198,51.4926],[6.2305,51.4767],[6.2276,51.4507],[6.2143,51.4096],[6.2335,51.4029],[6.2227,51.3914],[6.232,51.366],[6.1984,51.3426],[6.1746,51.3378],[6.1545,51.3036],[6.1281,51.2862],[6.1178,51.2699],[6.0782,51.2447],[6.0917,51.2254],[6.0736,51.2241],[6.0783,51.1875],[6.0987,51.1737],[6.1218,51.1785],[6.1456,51.1904],[6.1743,51.1981],[6.1873,51.1916],[6.1448,51.1737],[6.1785,51.1619],[6.1718,51.1529],[6.1302,51.1504],[6.107,51.1413],[6.0958,51.1294],[6.0745,51.1205],[6.0387,51.0956],[6.0153,51.0941],[5.9984,51.0814],[5.9695,51.0345],[5.9477,51.0373],[5.9262,51.0557],[5.903,51.0545],[5.8721,51.0434],[5.8805,51.0258],[5.908,51.001],[5.8997,50.9814],[5.9501,50.9922],[5.9669,50.9831],[5.9826,50.9881],[6.0324,50.98],[6.0022,50.9586],[6.0152,50.9332],[6.0457,50.9311],[6.0585,50.9205],[6.0829,50.9218],[6.0754,50.9009],[6.0877,50.8789],[6.0738,50.8469],[6.0631,50.8516],[6.0197,50.8452],[6.0311,50.8214],[6.0271,50.8148],[5.9997,50.8028],[5.9753,50.8141],[5.9632,50.7951],[5.9925,50.7817],[6.0062,50.7674],[6.0286,50.7252],[6.0603,50.7177],[6.1007,50.7186],[6.1187,50.7087],[6.1491,50.6769],[6.1738,50.6584],[6.178,50.6445],[6.1681,50.637],[6.1731,50.6214],[6.1976,50.6312],[6.2289,50.6242],[6.2593,50.6254],[6.2784,50.6164],[6.2516,50.5921],[6.2201,50.5865],[6.1975,50.567],[6.1756,50.5599],[6.1722,50.5505],[6.1808,50.5331],[6.2104,50.517],[6.2238,50.5023],[6.2989,50.4978],[6.3151,50.5026],[6.33,50.4936],[6.3425,50.4643],[6.3747,50.4459],[6.3623,50.4207],[6.3621,50.4047],[6.3405,50.3907],[6.3398,50.3799],[6.3637,50.3653],[6.3774,50.3508],[6.4083,50.3331],[6.4033,50.3219],[6.3565,50.3129],[6.3414,50.3228],[6.3012,50.3185],[6.3022,50.3074],[6.2793,50.2916],[6.2756,50.2654],[6.2548,50.2645],[6.2028,50.2548],[6.192,50.2435],[6.1704,50.2363],[6.1896,50.1895],[6.1695,50.179],[6.1464,50.1739],[6.1353,50.1547],[6.1535,50.1496],[6.1498,50.1374],[6.1299,50.134],[6.1184,50.1228],[6.1199,50.1044],[6.1083,50.0932],[6.1118,50.049],[6.1269,50.0161],[6.1403,50.0052],[6.1284,49.9977],[6.1546,49.9833],[6.1564,49.9613],[6.1757,49.9541],[6.1837,49.9689],[6.1984,49.956],[6.2192,49.9516],[6.2257,49.9405],[6.2245,49.9231],[6.2369,49.8924],[6.269,49.8745],[6.3092,49.8652],[6.3171,49.8469],[6.3302,49.8364],[6.3424,49.8511],[6.363,49.854],[6.3758,49.8492],[6.3975,49.8236],[6.45,49.8132],[6.4721,49.8221],[6.4845,49.8117],[6.508,49.8057],[6.5069,49.7901],[6.5188,49.7637],[6.5044,49.7539],[6.5067,49.7372],[6.4971,49.7256],[6.5032,49.7157],[6.4896,49.7035],[6.4615,49.6948],[6.4495,49.6797],[6.4241,49.6663],[6.437,49.6523],[6.4217,49.6327],[6.4224,49.6252],[6.3906,49.5972],[6.3767,49.5922],[6.3813,49.5743],[6.3782,49.548],[6.3608,49.5351],[6.3725,49.5092],[6.365,49.4819],[6.3676,49.4665],[6.4032,49.466],[6.4224,49.476],[6.4404,49.4667],[6.4682,49.4647],[6.4849,49.4525],[6.5006,49.4497],[6.5354,49.4342],[6.5546,49.419],[6.5384,49.411],[6.5405,49.4011],[6.5649,49.3885],[6.584,49.3847],[6.586,49.3713],[6.5993,49.3666],[6.5872,49.3517],[6.5654,49.3493],[6.5889,49.3221],[6.616,49.3027],[6.6678,49.2804],[6.6615,49.2573],[6.6843,49.2521],[6.6929,49.2175],[6.7221,49.2194],[6.7306,49.2067],[6.7128,49.1896],[6.7197,49.1766],[6.738,49.1646],[6.7841,49.1681],[6.8345,49.1514],[6.8477,49.1574],[6.8447,49.1729],[6.8609,49.1786],[6.8512,49.2005],[6.8377,49.2113],[6.8584,49.2216],[6.8943,49.2102],[6.9243,49.2231],[6.9348,49.2221],[6.9576,49.2038],[6.9766,49.2086],[6.9988,49.1943],[7.0337,49.1883],[7.0283,49.1713],[7.0458,49.1388],[7.0459,49.1182],[7.058,49.1126],[7.0727,49.1251],[7.09,49.1323],[7.0832,49.1513],[7.0982,49.1543],[7.1042,49.1387],[7.1249,49.1412],[7.1317,49.1322],[7.1588,49.1208],[7.1849,49.1296],[7.1961,49.1221],[7.2454,49.1297],[7.2793,49.1233],[7.2934,49.1152],[7.3137,49.1365],[7.326,49.1434],[7.3628,49.1452],[7.3662,49.172],[7.4456,49.184],[7.4568,49.1641],[7.4913,49.1685],[7.5036,49.1505],[7.4896,49.1365],[7.5178,49.1188],[7.5312,49.0971],[7.5685,49.0799],[7.5998,49.083],[7.6274,49.0734],[7.6353,49.0542],[7.6711,49.046],[7.7306,49.0545],[7.7413,49.0469],[7.7665,49.0467],[7.7784,49.0576],[7.7999,49.0642],[7.8674,49.0335],[7.8901,49.0479],[7.9153,49.0419],[7.937,49.0562],[7.9654,49.0405],[7.9763,49.0283],[7.9973,49.028],[8.0511,49.0128],[8.0681,48.9993],[8.0914,48.9893],[8.1625,48.9774],[8.1935,48.9765],[8.2029,48.9694],[8.2214,48.9752],[8.2264,48.9649],[8.1974,48.9571],[8.1416,48.8961],[8.1214,48.8649],[8.1011,48.8158],[8.087,48.802],[8.0624,48.7892],[8.0319,48.7881],[8.0175,48.7628],[7.983,48.7611],[7.9702,48.7562],[7.9677,48.7298],[7.9617,48.7203],[7.8963,48.6672],[7.881,48.6583],[7.845,48.6455],[7.8305,48.6201],[7.805,48.5932],[7.8002,48.5832],[7.8055,48.5588],[7.8052,48.5135],[7.794,48.5017],[7.7669,48.4868],[7.7662,48.464],[7.7534,48.4346],[7.7335,48.3987],[7.731,48.3822],[7.7452,48.3298],[7.7341,48.3182],[7.7051,48.3096],[7.6939,48.3021],[7.6808,48.2573],[7.6662,48.2211],[7.6418,48.204],[7.6293,48.1832],[7.5995,48.1556],[7.5989,48.1354],[7.5779,48.1214],[7.5798,48.1068],[7.5693,48.0807],[7.5734,48.0596],[7.5686,48.0363],[7.6086,48.0003],[7.6222,47.9737],[7.6033,47.9486],[7.5826,47.9299],[7.5825,47.8983],[7.5577,47.8809],[7.5556,47.8705],[7.5624,47.841],[7.5302,47.7834],[7.5334,47.766],[7.5486,47.7354],[7.5439,47.7226],[7.5138,47.7028],[7.5247,47.6602],[7.5674,47.6317],[7.5743,47.6158],[7.6189,47.5809],[7.6392,47.597],[7.6706,47.5933],[7.6766,47.5772],[7.6671,47.5679],[7.6324,47.5624],[7.6427,47.552],[7.6695,47.5371],[7.6869,47.5361],[7.7191,47.5489],[7.7531,47.5519],[7.7931,47.5638],[7.8087,47.5756],[7.8208,47.5947],[7.8356,47.5891],[7.8629,47.595],[7.8865,47.5949],[7.9027,47.5864],[7.9067,47.566],[7.9192,47.5534],[7.9481,47.5506],[7.9582,47.5642],[7.9925,47.5625],[8.0206,47.5564],[8.0454,47.5603],[8.0685,47.5705],[8.081,47.5638],[8.0985,47.566],[8.1017,47.5809],[8.1119,47.5891],[8.1347,47.5893],[8.1472,47.6009],[8.1677,47.6013],[8.2029,47.6262],[8.2352,47.6167],[8.256,47.6203],[8.2957,47.6106],[8.2965,47.5935],[8.3246,47.5763],[8.3795,47.5703],[8.402,47.5795],[8.422,47.5726],[8.4405,47.5719],[8.4956,47.5852],[8.4889,47.593],[8.4688,47.5882],[8.4582,47.603],[8.4826,47.6186],[8.5057,47.6215],[8.5209,47.6381],[8.5591,47.6276],[8.5728,47.6163],[8.5615,47.6037],[8.5768,47.5999],[8.6029,47.6135],[8.6061,47.6209],[8.5964,47.6455],[8.6251,47.6459],[8.6285,47.6576],[8.6007,47.6769],[8.579,47.6676],[8.5641,47.675],[8.5288,47.6647],[8.5273,47.6504],[8.4662,47.6487],[8.4676,47.6592],[8.4455,47.6594],[8.4052,47.6782],[8.4196,47.6894],[8.4057,47.7063],[8.4572,47.7353],[8.4573,47.7559],[8.4877,47.7797],[8.497,47.7788],[8.5511,47.791],[8.5675,47.7859],[8.576,47.8078],[8.6147,47.8076],[8.622,47.773],[8.6374,47.7679],[8.6498,47.7786],[8.6461,47.7965],[8.683,47.7915],[8.6903,47.7629],[8.7141,47.7708],[8.7411,47.7576],[8.7152,47.7427],[8.7194,47.7271],[8.7375,47.7212],[8.7279,47.6968],[8.7569,47.6943],[8.7927,47.6793],[8.802,47.6961],[8.7973,47.708],[8.7728,47.7115],[8.7725,47.7218],[8.8082,47.7417],[8.8224,47.7176],[8.8469,47.7153],[8.8598,47.7021],[8.8633,47.6838],[8.8774,47.6714],[8.8789,47.6587],[8.9015,47.6552],[8.9419,47.662],[8.9954,47.6863],[9.0084,47.7012],[8.9967,47.7103],[8.9735,47.7167],[8.9414,47.7318],[8.9458,47.7392],[8.975,47.7405],[9.0011,47.7304],[9.0009,47.7463],[9.0236,47.7336],[9.0505,47.7262],[9.1038,47.7049],[9.13,47.6752],[9.1641,47.6536],[9.1858,47.6577],[9.1876,47.6693],[9.2211,47.6682],[9.2154,47.686],[9.184,47.7096],[9.177,47.7378],[9.1531,47.753],[9.1336,47.7556],[9.1209,47.7643],[9.091,47.7731],[9.0714,47.7835],[9.032,47.8127],[9.0416,47.8232],[9.0672,47.8199],[9.0893,47.8047],[9.122,47.7917],[9.1411,47.7765],[9.16,47.7724],[9.1973,47.7557],[9.2162,47.7516],[9.2313,47.7422],[9.2339,47.7251],[9.2524,47.7084],[9.3152,47.677],[9.3562,47.664],[9.4083,47.6704],[9.4259,47.6685],[9.4418,47.6599],[9.4697,47.6518],[9.4987,47.6528],[9.5205,47.6397],[9.5421,47.6004],[9.5573,47.5892],[9.5791,47.5859],[9.6093,47.5867],[9.6199,47.5719],[9.6495,47.5672],[9.6556,47.5604],[9.6851,47.5585],[9.6948,47.5438],[9.7082,47.5516],[9.7312,47.5463],[9.7474,47.559],[9.7472,47.5742],[9.7742,47.5968],[9.8015,47.5972],[9.8226,47.5852],[9.8239,47.5631],[9.8131,47.5507],[9.8489,47.5433],[9.8737,47.5307],[9.881,47.5485],[9.9061,47.5456],[9.9206,47.532],[9.936,47.5378],[9.9551,47.5369],[9.9612,47.523],[9.9922,47.5068],[9.9973,47.4862],[10.0337,47.4918],[10.0439,47.4893],[10.0499,47.4669],[10.0886,47.4506],[10.1008,47.4317],[10.0894,47.4147],[10.073,47.4146],[10.0962,47.3585],[10.1173,47.3739],[10.1336,47.3667],[10.1607,47.3672],[10.1675,47.3859],[10.1785,47.3935],[10.2098,47.3795],[10.2269,47.3929],[10.2317,47.3725],[10.1981,47.3307],[10.2091,47.3117],[10.1925,47.2965],[10.1707,47.2924],[10.1702,47.2699],[10.1976,47.2773],[10.2316,47.2699],[10.2632,47.2881],[10.2747,47.2845],[10.3069,47.3028],[10.3232,47.3026],[10.3443,47.3183],[10.3511,47.3333],[10.3863,47.3595],[10.39,47.3754],[10.4063,47.3752],[10.4173,47.3828],[10.4358,47.4155],[10.453,47.4208],[10.4716,47.4331],[10.4643,47.4625],[10.4679,47.4716],[10.4585,47.4842],[10.4384,47.4882],[10.431,47.5068],[10.4397,47.5169],[10.4364,47.5269],[10.4518,47.5576],[10.4334,47.572],[10.4322,47.5856],[10.4583,47.5854],[10.4685,47.5728],[10.4534,47.561],[10.4751,47.5569],[10.4911,47.545],[10.5235,47.5405],[10.5753,47.5415],[10.5796,47.556],[10.6,47.5698],[10.6216,47.5695],[10.6268,47.5617],[10.6862,47.5601],[10.6914,47.5458],[10.7129,47.5402],[10.7464,47.5394],[10.7603,47.5329],[10.7595,47.5227],[10.772,47.5161],[10.806,47.5225],[10.8453,47.5358],[10.8831,47.5381],[10.8977,47.5201],[10.9186,47.5161],[10.8704,47.5021],[10.863,47.478],[10.879,47.4741],[10.8998,47.4821],[10.9215,47.4701],[10.9497,47.442],[10.9785,47.4221],[10.9686,47.3993],[10.9874,47.395],[11.0147,47.4008],[11.0434,47.3949],[11.0973,47.3957],[11.1187,47.3997],[11.1237,47.4108],[11.1512,47.4236],[11.2011,47.4329],[11.2461,47.4348],[11.2574,47.4261],[11.2416,47.4151],[11.2356,47.4032],[11.2407,47.3912],[11.285,47.3949],[11.2967,47.4109],[11.2939,47.4302],[11.3245,47.4361],[11.3416,47.4518],[11.3836,47.4518],[11.4241,47.4456],[11.4139,47.4655],[11.388,47.4719],[11.4374,47.5133],[11.454,47.5057],[11.4872,47.5091],[11.5093,47.5052],[11.581,47.5118],[11.5976,47.5227],[11.593,47.5529],[11.6143,47.578],[11.6254,47.581],[11.6363,47.5983],[11.647,47.5982],[11.6677,47.5863],[11.7197,47.5922],[11.7431,47.5912],[11.7769,47.5949],[11.7963,47.5834],[11.8293,47.583],[11.8569,47.5791],[11.8625,47.5975],[11.8735,47.5974],[11.9231,47.6116],[11.9397,47.6077],[11.9948,47.6183],[12.0168,47.618],[12.0553,47.6102],[12.0719,47.6138],[12.0884,47.6061],[12.1269,47.6057],[12.1379,47.6018],[12.171,47.6089],[12.1875,47.6013],[12.2093,47.6012],[12.2209,47.6099],[12.2052,47.6542],[12.1927,47.6727],[12.1792,47.6811],[12.1744,47.6989],[12.2098,47.7026],[12.2319,47.7138],[12.2543,47.74],[12.2705,47.7287],[12.2538,47.71],[12.248,47.6875],[12.2751,47.6763],[12.2807,47.6838],[12.3297,47.6954],[12.3565,47.692],[12.3655,47.6863],[12.4195,47.6988],[12.44,47.6967],[12.4403,47.6814],[12.4537,47.6729],[12.4667,47.6541],[12.4862,47.6465],[12.5061,47.6289],[12.5324,47.639],[12.5773,47.6345],[12.6053,47.6792],[12.653,47.6742],[12.674,47.6848],[12.7023,47.6814],[12.7367,47.6822],[12.761,47.6654],[12.7711,47.6451],[12.7895,47.6388],[12.8035,47.627],[12.8267,47.6163],[12.7989,47.6068],[12.7813,47.5815],[12.7998,47.5615],[12.8133,47.5531],[12.8516,47.5486],[12.8516,47.5323],[12.8848,47.5244],[12.9131,47.4967],[12.9351,47.4916],[12.9699,47.4771],[12.9846,47.4848],[13.0046,47.4687],[13.0538,47.4949],[13.0533,47.517],[13.0364,47.5366],[13.059,47.5579],[13.0479,47.5848],[13.0765,47.5875],[13.0668,47.6018],[13.0712,47.6147],[13.1056,47.6392],[13.0781,47.6717],[13.0816,47.6914],[13.063,47.6994],[13.0435,47.721],[13.0153,47.7297],[12.9853,47.7122],[12.9565,47.7137],[12.9307,47.719],[12.9113,47.7312],[12.9238,47.7534],[12.9312,47.753],[12.9493,47.775],[12.9474,47.7869],[12.982,47.8218],[12.9773,47.8267],[13.0011,47.8522],[12.9841,47.8714],[12.9454,47.9251],[12.9357,47.9454],[12.922,47.9399],[12.9115,47.959],[12.8813,47.961],[12.864,47.9982],[12.8597,48.0205],[12.8386,48.0354],[12.7737,48.0727],[12.7575,48.0876],[12.753,48.1173],[12.7645,48.1247],[12.7871,48.1285],[12.8035,48.1516],[12.8386,48.1619],[12.856,48.1768],[12.8682,48.2037],[12.901,48.2073],[12.9463,48.2173],[12.9632,48.2169],[13.0209,48.2604],[13.1026,48.2842],[13.1413,48.2855],[13.1849,48.2986],[13.2471,48.2961],[13.298,48.3099],[13.3481,48.3381],[13.3686,48.3558],[13.4106,48.3777],[13.4168,48.3842],[13.4272,48.4172],[13.4367,48.4294],[13.4336,48.4474],[13.4239,48.4608],[13.436,48.4889],[13.4548,48.52],[13.4444,48.5276],[13.4507,48.5422],[13.4351,48.5536],[13.4471,48.5718],[13.4682,48.5603],[13.502,48.5781],[13.5032,48.5965],[13.5195,48.5962],[13.5455,48.5772],[13.5672,48.5657],[13.5944,48.5761],[13.6216,48.5608],[13.6526,48.5511],[13.6616,48.538],[13.7211,48.5168],[13.7319,48.53],[13.746,48.5356],[13.7424,48.5489],[13.7633,48.5568],[13.7804,48.5717],[13.8021,48.5769],[13.8099,48.5909],[13.8257,48.6412],[13.8101,48.6538],[13.8163,48.6603],[13.8123,48.6819],[13.8145,48.7028],[13.7871,48.7215],[13.8104,48.7354],[13.8174,48.7535],[13.836,48.7751],[13.8119,48.7757],[13.81,48.8016],[13.7628,48.839],[13.7543,48.8521],[13.7513,48.8745],[13.7324,48.8814],[13.6713,48.8831],[13.6665,48.8965],[13.653,48.8956],[13.6433,48.9167],[13.625,48.9397],[13.6313,48.9506],[13.5981,48.9478],[13.5885,48.9686],[13.541,48.9656],[13.5102,48.9682],[13.5091,48.9487],[13.4892,48.9442],[13.4664,48.9609],[13.4454,48.9641],[13.409,48.9799],[13.4067,48.9966],[13.4084,49.0333],[13.4037,49.0518],[13.382,49.0596],[13.3394,49.0972],[13.3175,49.105],[13.2959,49.1202],[13.2631,49.1206],[13.2441,49.1141],[13.2197,49.1211],[13.1802,49.1444],[13.1861,49.1667],[13.1623,49.1721],[13.1461,49.1891],[13.1175,49.1963],[13.1143,49.2187],[13.1,49.2223],[13.0958,49.2436],[13.0724,49.2481],[13.061,49.2559],[13.0614,49.267],[13.0379,49.2677],[13.0326,49.2827],[13.0336,49.3086],[13.0101,49.3094],[12.9932,49.3285],[12.9815,49.3289],[12.9529,49.3483],[12.9118,49.3497],[12.8767,49.3545],[12.8763,49.3359],[12.8483,49.3474],[12.8031,49.348],[12.7841,49.3519],[12.7823,49.3637],[12.7591,49.3818],[12.7597,49.4003],[12.7405,49.4106],[12.7118,49.4176],[12.7104,49.4266],[12.683,49.4247],[12.6611,49.4322],[12.6598,49.4533],[12.6479,49.472],[12.6424,49.5073],[12.6458,49.5311],[12.5962,49.5363],[12.5881,49.544],[12.5694,49.5986],[12.5699,49.6096],[12.5254,49.6324],[12.5316,49.6434],[12.5275,49.6624],[12.533,49.673],[12.5279,49.6878],[12.4993,49.6881],[12.4652,49.7037],[12.4513,49.7032],[12.4355,49.7151],[12.4312,49.7328],[12.4085,49.7449],[12.4087,49.7662],[12.4659,49.7853],[12.4721,49.7903],[12.4683,49.8138],[12.4781,49.8173],[12.4842,49.8429],[12.5015,49.8388],[12.5026,49.8605],[12.5164,49.8615],[12.5197,49.8843],[12.5459,49.8953],[12.5513,49.9047],[12.5477,49.9271],[12.5124,49.9291],[12.4972,49.9371],[12.4757,49.9401],[12.4728,49.958],[12.4866,49.959],[12.4973,49.9762],[12.4891,49.9864],[12.4683,49.9959],[12.4385,49.9963],[12.437,50.0053],[12.4085,50.0085],[12.4002,50.0162],[12.3759,50.0165],[12.3257,50.0425],[12.3158,50.0599],[12.2881,50.0578],[12.256,50.0623],[12.2727,50.078],[12.2612,50.0921],[12.2218,50.1081],[12.1991,50.1118],[12.1934,50.146],[12.2103,50.1729],[12.199,50.1842],[12.1989,50.1956],[12.1625,50.218],[12.1605,50.2297],[12.1018,50.2434],[12.0974,50.2667],[12.1257,50.2744],[12.1296,50.2863],[12.125,50.3132],[12.1312,50.3182],[12.1941,50.3229],[12.1949,50.2791],[12.2065,50.2755],[12.2529,50.2757],[12.2342,50.2533],[12.2577,50.2385],[12.2735,50.2349],[12.2827,50.1827],[12.2995,50.1793],[12.3219,50.1836],[12.3266,50.2057],[12.3397,50.2113],[12.3352,50.2381],[12.3561,50.2396],[12.3586,50.267],[12.3765,50.2864],[12.3974,50.2879],[12.4098,50.2979],[12.4061,50.3203],[12.4193,50.3257],[12.4472,50.3277],[12.445,50.3412],[12.4582,50.3467],[12.4931,50.3492],[12.4919,50.3823],[12.5161,50.4001],[12.5565,50.4025],[12.5801,50.4093],[12.6028,50.4085],[12.6151,50.4192],[12.6431,50.4109],[12.6666,50.4176],[12.7051,50.3978],[12.7061,50.409],[12.7344,50.4295],[12.7614,50.4404],[12.8012,50.4403],[12.8295,50.4541],[12.8435,50.4551],[12.9,50.423],[12.9164,50.4193],[12.9358,50.407],[12.9491,50.4123],[12.977,50.4143],[12.9966,50.4246],[12.9953,50.4336],[13.0282,50.4494],[13.0241,50.4762],[13.0333,50.5085],[13.0543,50.5099],[13.0704,50.4974],[13.0914,50.4988],[13.1339,50.5151],[13.1433,50.506],[13.196,50.5006],[13.1968,50.5155],[13.2148,50.5249],[13.2268,50.5392],[13.2359,50.5777],[13.2486,50.5923],[13.2836,50.5911],[13.2847,50.5791],[13.3268,50.5818],[13.3238,50.6024],[13.3432,50.6145],[13.3643,50.6158],[13.3768,50.6272],[13.3749,50.6437],[13.3962,50.6405],[13.4091,50.6319],[13.4137,50.6131],[13.4365,50.6049],[13.4656,50.6039],[13.4962,50.6253],[13.526,50.6355],[13.5144,50.6568],[13.5413,50.6675],[13.5451,50.6904],[13.5363,50.7024],[13.549,50.7132],[13.5778,50.7104],[13.62,50.713],[13.6527,50.733],[13.6822,50.7258],[13.6905,50.7172],[13.7116,50.7185],[13.7237,50.7259],[13.7466,50.7215],[13.7587,50.7285],[13.7934,50.7274],[13.8216,50.7154],[13.8568,50.7217],[13.8648,50.741],[13.8987,50.743],[13.8825,50.7616],[13.8955,50.7835],[13.9359,50.7821],[13.9477,50.7855],[13.9486,50.8002],[13.9839,50.8102],[13.995,50.8024],[14.0234,50.7942],[14.0414,50.8047],[14.0585,50.8005],[14.0708,50.8111],[14.1178,50.8244],[14.1416,50.8347],[14.1767,50.8411],[14.1941,50.8406],[14.2179,50.8509],[14.225,50.8762],[14.2424,50.8758],[14.2545,50.8864],[14.2773,50.875],[14.2949,50.8748],[14.3369,50.8889],[14.3723,50.8886],[14.3913,50.9057],[14.3896,50.9192],[14.4026,50.9289],[14.4009,50.9423],[14.3862,50.9461],[14.3579,50.9446],[14.3426,50.9528],[14.3137,50.9558],[14.3111,50.9719],[14.2813,50.965],[14.2584,50.9728],[14.2535,50.9944],[14.2654,50.9984],[14.2631,51.0164],[14.2832,51.0265],[14.281,51.0444],[14.294,51.0542],[14.3193,51.0253],[14.3516,51.0302],[14.3699,51.0269],[14.3675,51.0151],[14.4099,51.0086],[14.4488,51.0307],[14.4723,51.0236],[14.5338,51.0142],[14.5951,50.9885],[14.5972,50.9706],[14.5657,50.9364],[14.5677,50.9194],[14.6032,50.9212],[14.6239,50.9267],[14.6299,50.9361],[14.6517,50.9326],[14.6538,50.9147],[14.6263,50.8988],[14.6254,50.8841],[14.6065,50.8621],[14.6424,50.8474],[14.6609,50.8476],[14.6797,50.8407],[14.7124,50.8408],[14.7109,50.8268],[14.7526,50.8292],[14.7783,50.8247],[14.8057,50.8437],[14.8235,50.8643],[14.8261,50.881],[14.8204,50.892],[14.8714,50.9262],[14.8784,50.9448],[14.8992,50.9493],[14.9038,50.9721],[14.9164,50.9862],[14.9301,50.9914],[14.9357,51.0052],[14.9332,51.0277],[14.9501,51.0422],[14.9507,51.057],[14.9636,51.0743],[14.9773,51.0794],[14.9738,51.1109],[14.9875,51.116],[14.986,51.1295],[14.9967,51.1354],[14.9918,51.1612],[15.0029,51.1709],[15.008,51.1892],[15.0055,51.2117],[15.0177,51.2303],[15.0381,51.2403],[15.0339,51.2951],[15.0167,51.317],[15.0046,51.3168],[14.9993,51.3315],[14.9764,51.3422],[14.9668,51.3634],[14.9806,51.3686],[14.9648,51.3814],[14.9591,51.4308],[14.9638,51.4535],[14.9509,51.4603],[14.9339,51.4823],[14.91,51.4857],[14.9104,51.4932],[14.8803,51.4929],[14.8284,51.5013],[14.7866,51.5219],[14.7538,51.5216],[14.7314,51.5282],[14.7287,51.5507],[14.6981,51.5585],[14.7225,51.5959],[14.746,51.611],[14.7468,51.6222],[14.7363,51.6333],[14.7385,51.6631],[14.7189,51.6929],[14.708,51.6928],[14.6804,51.7108],[14.6788,51.7243],[14.6638,51.7281],[14.655,51.7412],[14.6484,51.7951],[14.6328,51.8033],[14.5962,51.806],[14.5917,51.8419],[14.6056,51.8471],[14.6304,51.8669],[14.6529,51.8765],[14.6805,51.9052],[14.7048,51.9427],[14.7059,51.9576],[14.6916,51.9836],[14.7027,51.9874],[14.704,52.0061],[14.7216,52.0248],[14.734,52.0472],[14.7297,52.0621],[14.741,52.0697],[14.7313,52.0845],[14.7159,52.0957],[14.6893,52.0993],[14.6693,52.1216],[14.6715,52.1514],[14.6947,52.1739],[14.6747,52.1962],[14.692,52.2112],[14.6996,52.2411],[14.6847,52.2597],[14.6419,52.2633],[14.6259,52.2725],[14.6038,52.2734],[14.5709,52.2896],[14.5855,52.3021],[14.5581,52.3438],[14.55,52.35],[14.5461,52.3809],[14.5289,52.3964],[14.5417,52.4112],[14.5432,52.4375],[14.5735,52.4444],[14.6046,52.4667],[14.6055,52.4818],[14.6215,52.4844],[14.626,52.5072],[14.6108,52.511],[14.6063,52.5468],[14.6125,52.5562],[14.6334,52.5662],[14.6323,52.5797],[14.6084,52.5888],[14.6062,52.6055],[14.5519,52.6254],[14.5433,52.634],[14.505,52.6438],[14.4662,52.6573],[14.4559,52.6793],[14.4269,52.6831],[14.4218,52.6944],[14.3815,52.7252],[14.3716,52.7382],[14.318,52.7671],[14.303,52.7682],[14.2559,52.7865],[14.2301,52.8122],[14.2141,52.8204],[14.1845,52.8189],[14.1389,52.8255],[14.1213,52.8403],[14.1226,52.8549],[14.1559,52.8796],[14.1425,52.9611],[14.2036,52.9892],[14.2222,52.9924],[14.2705,53.0084],[14.2978,53.0279],[14.3401,53.0481],[14.3599,53.0671],[14.3717,53.0903],[14.3693,53.1082],[14.3825,53.1148],[14.3807,53.1359],[14.3863,53.1497],[14.3702,53.1579],[14.3789,53.2042],[14.4008,53.2091],[14.4471,53.2565],[14.4441,53.2766],[14.4233,53.2779],[14.4243,53.2887],[14.4141,53.3113],[14.4202,53.3256],[14.4108,53.3482],[14.3997,53.3595],[14.4009,53.378],[14.3841,53.4003],[14.3736,53.4262],[14.3756,53.4594],[14.3637,53.4595],[14.3597,53.489],[14.3357,53.5041],[14.3182,53.5228],[14.3184,53.5389],[14.3015,53.5516],[14.3153,53.5613],[14.311,53.5927],[14.319,53.6112],[14.2893,53.6338],[14.2916,53.6595],[14.2759,53.6811],[14.2732,53.6993],[14.2447,53.6937],[14.2175,53.7001],[14.2203,53.7096],[14.2531,53.7201],[14.2658,53.7349],[14.2642,53.7521],[14.2336,53.7618],[14.1842,53.736],[14.1675,53.7424],[14.1242,53.7374],[14.0742,53.7476],[14.0614,53.7551],[14.0386,53.7551],[14.0053,53.7674],[13.9725,53.7721],[13.9375,53.7915],[13.9008,53.8026],[13.8753,53.8193],[13.8681,53.836],[13.9192,53.8462],[13.9425,53.8432],[14.0058,53.8563],[14.0331,53.8726],[14.0664,53.8693],[14.0875,53.8737],[14.1136,53.8685],[14.1892,53.8726],[14.2152,53.8697],[14.2153,53.8917],[14.1978,53.9118],[14.2214,53.9301],[14.1831,53.9463],[14.1419,53.9765],[14.0525,54.0271],[14.0069,54.0574],[13.9675,54.0696],[13.9319,54.0754],[13.8708,54.1015],[13.8358,54.1282],[13.8058,54.1729],[13.7653,54.1701],[13.7492,54.159],[13.7575,54.1346],[13.8114,54.0993],[13.8086,54.0843],[13.7875,54.0565],[13.7903,54.0488],[13.7636,54.031],[13.7692,54.019],[13.8014,54.0185],[13.8203,54.0368],[13.8653,54.0457],[13.8647,54.0315],[13.8531,54.004],[13.8997,54.0121],[13.9242,54.0354],[13.9108,54.0493],[13.9247,54.0632],[13.9719,54.0588],[13.9969,54.0412],[14.0036,54.0199],[14.0381,54.0118],[14.0475,53.9865],[14.0336,53.941],[14.0125,53.9493],[14.0142,53.9607],[13.9953,53.9629],[13.9681,53.959],[13.9653,53.9901],[13.9431,53.9946],[13.9075,53.9907],[13.8986,53.981],[13.8981,53.9621],[13.9231,53.9504],[13.9375,53.9143],[13.9219,53.8879],[13.8942,53.8782],[13.8492,53.8801],[13.8558,53.8943],[13.8864,53.9099],[13.9014,53.9099],[13.9125,53.9254],[13.8953,53.9432],[13.8797,53.9512],[13.8569,53.9507],[13.8558,53.9604],[13.8347,53.9843],[13.8108,53.996],[13.7964,53.9951],[13.7631,54.0146],[13.7486,54.0337],[13.7653,54.0365],[13.7853,54.0493],[13.7953,54.0893],[13.8075,54.0962],[13.7958,54.1076],[13.7775,54.1087],[13.7497,54.1393],[13.7342,54.1363],[13.6964,54.149],[13.6964,54.1718],[13.6536,54.1543],[13.6281,54.1401],[13.5781,54.1315],[13.5286,54.1304],[13.4769,54.1188],[13.4847,54.1026],[13.4992,54.0901],[13.4892,54.0835],[13.4675,54.0871],[13.4381,54.1135],[13.4408,54.1229],[13.4108,54.1501],[13.3936,54.1587],[13.4225,54.1662],[13.4069,54.1796],[13.3769,54.1768],[13.3631,54.1701],[13.3364,54.1765],[13.3058,54.2049],[13.2975,54.2254],[13.2864,54.2351],[13.2586,54.2412],[13.2164,54.241],[13.2042,54.2571],[13.1653,54.2776],[13.1531,54.2685],[13.1325,54.269],[13.1058,54.2818],[13.1119,54.3046],[13.0881,54.3201],[13.0758,54.3485],[13.0936,54.3638],[13.0731,54.3826],[13.0497,54.3796],[13.0253,54.3965],[13.0247,54.4218],[13.0325,54.4351],[12.9992,54.4362],[12.9869,54.4251],[12.9575,54.4229],[12.8975,54.4018],[12.8853,54.3851],[12.8836,54.3693],[12.8458,54.3512],[12.8103,54.3499],[12.8036,54.3724],[12.7853,54.3796],[12.7675,54.371],[12.7203,54.3729],[12.7153,54.3988],[12.7064,54.4121],[12.6858,54.4068],[12.6575,54.4082],[12.6708,54.3918],[12.6197,54.3724],[12.5864,54.3563],[12.5736,54.3713],[12.5542,54.3724],[12.5531,54.359],[12.5386,54.3518],[12.5353,54.3387],[12.4964,54.3307],[12.4731,54.3299],[12.4792,54.3121],[12.4742,54.3029],[12.4347,54.2971],[12.4092,54.2799],[12.4181,54.2579],[12.3997,54.2507],[12.3636,54.2674],[12.3758,54.2821],[12.3586,54.2996],[12.3819,54.309],[12.3981,54.3307],[12.4214,54.3396],[12.4192,54.3701],[12.4358,54.3787],[12.4864,54.3824],[12.5275,54.381],[12.5519,54.3896],[12.5869,54.389],[12.5769,54.4035],[12.6103,54.4093],[12.6231,54.4201],[12.6681,54.4096],[12.6942,54.4185],[12.7558,54.4146],[12.7886,54.4171],[12.7992,54.409],[12.8314,54.4226],[12.8814,54.4165],[12.9225,54.4232],[12.9381,54.4382],[12.9203,54.4449],[12.8564,54.4404],[12.7831,54.4401],[12.7692,54.4418],[12.6714,54.4415],[12.6164,54.4493],[12.5647,54.4532],[12.5369,54.461],[12.5103,54.4826],[12.4997,54.4738],[12.4675,54.4207],[12.4392,54.3935],[12.4075,54.3776],[12.3864,54.3551],[12.3642,54.324],[12.3392,54.2979],[12.2997,54.2788],[12.1958,54.2429],[12.1708,54.2249],[12.1492,54.2007],[12.1092,54.1757],[12.1408,54.174],[12.1364,54.1574],[12.1025,54.1557],[12.0903,54.1818],[12.0425,54.1763],[12.0103,54.1782],[11.9664,54.1668],[11.9419,54.1643],[11.9064,54.1551],[11.8536,54.1451],[11.8086,54.1454],[11.7614,54.1546],[11.6825,54.1532],[11.6325,54.1237],[11.6131,54.1087],[11.5892,54.0996],[11.5564,54.0954],[11.5308,54.0743],[11.5369,54.0571],[11.5592,54.0696],[11.5892,54.0938],[11.6131,54.1029],[11.6258,54.0896],[11.6242,54.0771],[11.6097,54.0693],[11.5814,54.0635],[11.5864,54.0465],[11.5758,54.0349],[11.5108,54.0129],[11.4803,53.9815],[11.4786,53.9987],[11.4958,54.0107],[11.4925,54.0229],[11.4575,54.0238],[11.4025,54.0085],[11.3781,53.9974],[11.3781,53.9746],[11.3853,53.9671],[11.4269,53.9671],[11.4281,53.9865],[11.4453,53.9954],[11.4436,53.9604],[11.4669,53.9707],[11.4797,53.9649],[11.4819,53.9515],[11.4753,53.929],[11.4447,53.9124],[11.4158,53.9154],[11.4031,53.9215],[11.4053,53.9354],[11.3869,53.939],[11.3647,53.9351],[11.3269,53.9571],[11.3164,53.9426],[11.2869,53.9304],[11.2586,53.934],[11.2442,53.9437],[11.2453,53.9715],[11.2603,53.981],[11.2147,53.9849],[11.2008,53.9915],[11.1942,54.0074],[11.1792,54.0157],[11.1469,54.0096],[11.0881,54.014],[11.0403,54.0065],[10.9808,53.9871],[10.9425,53.9682],[10.9158,53.959],[10.8908,53.9557],[10.8814,53.9651],[10.8853,53.9785],[10.8736,53.9893],[10.8097,53.9951],[10.7969,53.9926],[10.7719,54.0088],[10.7503,54.0385],[10.7597,54.0599],[10.7919,54.0749],[10.8019,54.0907],[10.8553,54.089],[10.8675,54.0849],[10.8925,54.0954],[10.9253,54.1168],[10.9536,54.1404],[10.9947,54.1549],[11.0508,54.1779],[11.0669,54.1912],[11.0936,54.1979],[11.0908,54.2199],[11.0814,54.2474],[11.0842,54.2796],[11.0775,54.2974],[11.0725,54.3446],[11.0797,54.3518],[11.1264,54.3737],[11.1314,54.3874],[11.1186,54.3946],[11.0903,54.3915],[11.0786,54.379],[11.0258,54.3676],[11.0225,54.3807],[10.9931,54.3796],[10.9286,54.3818],[10.9103,54.3693],[10.8692,54.3574],[10.8264,54.3282],[10.7886,54.3115],[10.7547,54.3063],[10.7403,54.3096],[10.7125,54.3049],[10.6831,54.3104],[10.6775,54.3218],[10.6564,54.3282],[10.6436,54.3435],[10.6036,54.3626],[10.5397,54.3801],[10.4769,54.3918],[10.4153,54.4143],[10.3908,54.4257],[10.3353,54.4354],[10.3025,54.4338],[10.2792,54.4176],[10.2336,54.4154],[10.2181,54.4063],[10.1936,54.3646],[10.1786,54.3618],[10.1769,54.3343],[10.1586,54.324],[10.1469,54.3282],[10.1569,54.3415],[10.1408,54.3529],[10.1614,54.3826],[10.1886,54.3921],[10.1903,54.4099],[10.1714,54.4324],[10.1903,54.4571],[10.1725,54.4688],[10.1358,54.484],[10.1092,54.4843],[10.0186,54.4749],[9.9958,54.4682],[9.9597,54.4668],[9.9142,54.4521],[9.8658,54.4474],[9.8481,54.4557],[9.8397,54.4762],[9.8697,54.4738],[9.9658,54.5029],[9.9953,54.5193],[10.0153,54.5451],[10.0275,54.5504],[10.0269,54.6079],[10.0331,54.6171],[10.0325,54.6601],[10.0164,54.6596],[9.9992,54.6718],[9.9481,54.6738],[9.9392,54.6624],[9.9414,54.6318],[9.9275,54.6196],[9.9053,54.6143],[9.8764,54.5982],[9.8408,54.584],[9.8214,54.5804],[9.8025,54.5668],[9.7619,54.549],[9.7486,54.5465],[9.7419,54.5296],[9.7158,54.5174],[9.7136,54.4971],[9.6919,54.4901],[9.6653,54.5062],[9.6242,54.5115],[9.5819,54.5004],[9.5747,54.4843],[9.5486,54.5124],[9.5869,54.5101],[9.6042,54.5268],[9.6269,54.531],[9.6392,54.5218],[9.7008,54.5265],[9.7347,54.5324],[9.7403,54.5449],[9.7686,54.5651],[9.8103,54.579],[9.8247,54.5915],[9.8758,54.6099],[9.8919,54.6232],[9.9308,54.6271],[9.9297,54.6415],[9.9442,54.6763],[9.9636,54.6793],[9.9831,54.7012],[9.9947,54.6888],[10.0219,54.684],[10.0375,54.6879],[9.9953,54.711],[9.9819,54.7282],[9.9769,54.7568],[9.9553,54.7801],[9.9075,54.7974],[9.9019,54.7743],[9.8803,54.7615],[9.8758,54.7524],[9.8314,54.7607],[9.7953,54.7899],[9.7608,54.8015],[9.7114,54.8088],[9.6625,54.8232],[9.6497,54.8218],[9.6236,54.8315],[9.6064,54.8299],[9.5897,54.8468],[9.5892,54.876],[9.5653,54.8546],[9.5158,54.8385],[9.4964,54.8221],[9.4647,54.8226],[9.4531,54.8124],[9.4319,54.8112],[9.4128,54.8317],[9.3876,54.8383],[9.3406,54.8076],[9.2826,54.8022],[9.273,54.8241],[9.2422,54.8489],[9.1964,54.8559],[9.1432,54.8708],[9.0472,54.8691],[9.0268,54.8804],[8.9751,54.9006],[8.9024,54.9052],[8.8646,54.8991],[8.8504,54.8931],[8.812,54.9167],[8.7658,54.9122],[8.7619,54.8982],[8.731,54.8952],[8.6938,54.9143],[8.6527,54.9103],[8.6314,54.8999],[8.5881,54.886],[8.5164,54.8838],[8.4864,54.8774],[8.4375,54.8768],[8.3814,54.8907],[8.3625,54.9087],[8.3619,54.9568],[8.3536,54.9685],[8.3792,54.9968],[8.4158,55.0071],[8.4386,55.019],[8.4225,55.0343],[8.3969,55.036],[8.3992,55.0504],[8.4175,55.0565]]],[[[13.4292,54.6846],[13.4069,54.6815],[13.3764,54.6832],[13.3364,54.6749],[13.2864,54.6729],[13.2447,54.6571],[13.2192,54.6396],[13.2275,54.6135],[13.2031,54.586],[13.1664,54.5726],[13.1747,54.5601],[13.2153,54.586],[13.2286,54.5871],[13.2381,54.5996],[13.2269,54.6249],[13.2636,54.6437],[13.2831,54.6463],[13.2886,54.6274],[13.2819,54.6138],[13.2592,54.5935],[13.2425,54.5596],[13.2781,54.5643],[13.3169,54.5799],[13.3281,54.5938],[13.3486,54.6004],[13.3581,54.6132],[13.3719,54.6132],[13.3836,54.5957],[13.3836,54.5812],[13.3958,54.5729],[13.4258,54.5685],[13.4469,54.5513],[13.4864,54.5529],[13.5019,54.5485],[13.5147,54.5157],[13.4958,54.4796],[13.4792,54.4832],[13.4508,54.4732],[13.4419,54.4871],[13.4131,54.4938],[13.4086,54.5274],[13.3797,54.5468],[13.3536,54.581],[13.3003,54.5551],[13.2864,54.5432],[13.2364,54.5543],[13.1631,54.5451],[13.1636,54.5163],[13.1714,54.5074],[13.1931,54.5054],[13.2303,54.511],[13.2269,54.4865],[13.2558,54.486],[13.2536,54.4715],[13.2375,54.4624],[13.1692,54.4535],[13.1619,54.4357],[13.1497,54.429],[13.1586,54.421],[13.2125,54.4257],[13.2403,54.3854],[13.2331,54.3693],[13.1975,54.3757],[13.1675,54.3715],[13.1553,54.3749],[13.1236,54.3671],[13.1147,54.3318],[13.1353,54.3243],[13.1425,54.3149],[13.1697,54.3099],[13.1397,54.2965],[13.1442,54.281],[13.1653,54.2893],[13.1808,54.2876],[13.2008,54.2946],[13.1997,54.2701],[13.2214,54.2718],[13.2636,54.2546],[13.2875,54.2593],[13.3264,54.2593],[13.3225,54.2376],[13.3836,54.229],[13.3936,54.221],[13.4164,54.2326],[13.4242,54.2438],[13.4036,54.2649],[13.3619,54.2496],[13.3525,54.2696],[13.3981,54.2738],[13.4125,54.2968],[13.4436,54.3138],[13.4597,54.3157],[13.4636,54.3285],[13.4781,54.3304],[13.5097,54.3438],[13.5519,54.3393],[13.5714,54.3518],[13.6031,54.3451],[13.6136,54.3307],[13.6353,54.3435],[13.6736,54.3507],[13.6831,54.3262],[13.7003,54.316],[13.6569,54.3037],[13.6569,54.2879],[13.7019,54.2954],[13.7086,54.269],[13.7247,54.2754],[13.7142,54.2932],[13.7169,54.3101],[13.7308,54.3176],[13.7408,54.3462],[13.7092,54.369],[13.7041,54.3801],[13.6736,54.4007],[13.6236,54.3985],[13.5903,54.4218],[13.5714,54.4532],[13.5742,54.4765],[13.6075,54.4979],[13.6686,54.5207],[13.6819,54.5424],[13.6769,54.5635],[13.6608,54.5754],[13.6336,54.5851],[13.5892,54.584],[13.5092,54.5735],[13.4747,54.5735],[13.4625,54.5696],[13.4319,54.5737],[13.4014,54.5893],[13.3808,54.6135],[13.3758,54.6351],[13.3875,54.6499],[13.4219,54.6568],[13.4381,54.6768],[13.4292,54.6846]]],[[[13.1842,54.4943],[13.1575,54.4879],[13.1436,54.4768],[13.1208,54.449],[13.1647,54.4504],[13.1703,54.4571],[13.1847,54.4571],[13.1886,54.4657],[13.2269,54.4724],[13.2219,54.4865],[13.2003,54.4857],[13.1842,54.4943]]],[[[13.1364,54.6051],[13.1164,54.6021],[13.1014,54.5876],[13.0931,54.5449],[13.0631,54.491],[13.0597,54.4696],[13.0742,54.4718],[13.0736,54.5001],[13.0947,54.5251],[13.1169,54.5376],[13.1164,54.5574],[13.1092,54.5674],[13.1447,54.6043],[13.1364,54.6051]]],[[[13.0497,54.4601],[13.0342,54.4465],[13.0008,54.4474],[12.9692,54.4407],[12.9736,54.4324],[13.0208,54.4435],[13.0381,54.4412],[13.0597,54.4504],[13.0497,54.4601]]],[[[11.0697,54.5347],[11.0442,54.5238],[11.0119,54.486],[11.0042,54.4501],[11.0092,54.4412],[11.0636,54.4526],[11.0969,54.4437],[11.1019,54.4293],[11.0947,54.4096],[11.1186,54.4026],[11.1581,54.401],[11.1736,54.4196],[11.1964,54.4199],[11.1942,54.4082],[11.2453,54.4121],[11.2786,54.4049],[11.3092,54.4021],[11.3125,54.4087],[11.2964,54.4335],[11.2875,54.4379],[11.2675,54.4646],[11.2525,54.4712],[11.2353,54.5057],[11.2153,54.5049],[11.1714,54.5215],[11.1314,54.5246],[11.0697,54.5347]]],[[[8.7331,54.6443],[8.7136,54.6396],[8.7197,54.6268],[8.7397,54.6354],[8.7331,54.6443]]],[[[8.7084,47.7156],[8.7027,47.7203],[8.6744,47.7095],[8.6743,47.6902],[8.6921,47.6993],[8.7129,47.6941],[8.7084,47.7156]]],[[[8.7125,54.6921],[8.6903,54.6763],[8.7108,54.6746],[8.7219,54.6851],[8.7125,54.6921]]],[[[8.6919,54.5571],[8.6681,54.5485],[8.6447,54.5465],[8.6253,54.5351],[8.5925,54.5335],[8.5869,54.5193],[8.5925,54.5074],[8.6231,54.489],[8.6647,54.4926],[8.6886,54.5093],[8.7064,54.5382],[8.7069,54.5537],[8.6919,54.5571]]],[[[8.6636,54.6618],[8.6586,54.6568],[8.6075,54.6426],[8.5347,54.6343],[8.5481,54.6196],[8.5842,54.6338],[8.6031,54.6324],[8.6486,54.6396],[8.6631,54.6493],[8.6636,54.6618]]],[[[8.5397,54.7557],[8.4975,54.7493],[8.4731,54.7526],[8.4214,54.7432],[8.3964,54.7176],[8.3992,54.7021],[8.4342,54.6932],[8.4519,54.6924],[8.4803,54.681],[8.5669,54.6799],[8.5786,54.694],[8.5864,54.7412],[8.5664,54.751],[8.5397,54.7557]]],[[[8.5514,54.5796],[8.5303,54.5751],[8.5492,54.5565],[8.5708,54.5574],[8.5753,54.5657],[8.5514,54.5796]]],[[[8.4764,54.4765],[8.4536,54.4626],[8.4503,54.4526],[8.4703,54.4218],[8.4864,54.4126],[8.5258,54.4335],[8.5053,54.4388],[8.4747,54.466],[8.4764,54.4765]]],[[[8.4986,53.9313],[8.4875,53.914],[8.5064,53.9135],[8.5175,53.9232],[8.4986,53.9313]]],[[[8.4775,54.5462],[8.4647,54.5251],[8.4764,54.496],[8.4986,54.5057],[8.4908,54.5171],[8.5008,54.536],[8.4775,54.5462]]],[[[8.4831,54.5846],[8.4564,54.5696],[8.4553,54.5588],[8.4914,54.5565],[8.4831,54.5846]]],[[[8.3569,54.7115],[8.2919,54.6704],[8.3075,54.6501],[8.3625,54.6085],[8.3953,54.6121],[8.3797,54.6329],[8.3819,54.641],[8.3614,54.6496],[8.3542,54.6735],[8.3392,54.6893],[8.3403,54.6987],[8.3569,54.7115]]],[[[8.1619,53.7296],[8.1336,53.7232],[8.1497,53.7113],[8.1736,53.7238],[8.1619,53.7296]]],[[[8.0092,53.7857],[8.0025,53.7637],[8.0142,53.7471],[8.0308,53.7576],[8.0092,53.7857]]],[[[7.8958,53.794],[7.8503,53.7899],[7.8658,53.7771],[7.8758,53.7882],[7.9114,53.7804],[7.9369,53.7876],[7.8958,53.794]]],[[[7.7064,53.7796],[7.6853,53.7765],[7.6669,53.7604],[7.7408,53.7612],[7.7914,53.7682],[7.8014,53.7768],[7.7558,53.7779],[7.7258,53.7743],[7.7064,53.7796]]],[[[7.5736,53.7574],[7.5519,53.7554],[7.4903,53.7557],[7.4697,53.7457],[7.4736,53.7224],[7.5031,53.731],[7.5136,53.7435],[7.5397,53.7429],[7.5703,53.7482],[7.6125,53.746],[7.6119,53.7549],[7.5736,53.7574]]],[[[7.3942,53.7346],[7.3614,53.729],[7.3625,53.7226],[7.4219,53.721],[7.4247,53.7296],[7.3942,53.7346]]],[[[7.3164,53.7235],[7.2831,53.7179],[7.2497,53.7171],[7.1969,53.7218],[7.1725,53.719],[7.1381,53.7082],[7.1508,53.6974],[7.1781,53.7012],[7.1936,53.6987],[7.2119,53.7062],[7.2247,53.7032],[7.2714,53.7038],[7.3258,53.7124],[7.3164,53.7235]]],[[[7.0586,53.6846],[6.9881,53.681],[6.8964,53.6715],[6.8664,53.6715],[6.8625,53.6613],[6.8936,53.6657],[6.9269,53.6662],[6.9903,53.6738],[7.0958,53.6807],[7.0586,53.6846]]],[[[6.9014,53.6538],[6.8647,53.6446],[6.8769,53.6279],[6.8986,53.6268],[6.9053,53.6424],[6.9014,53.6538]]],[[[6.7619,53.6188],[6.6992,53.6065],[6.6542,53.6071],[6.6492,53.5999],[6.6631,53.5776],[6.7108,53.5646],[6.7458,53.5693],[6.7303,53.5801],[6.7508,53.5954],[6.8036,53.5974],[6.8097,53.6043],[6.7619,53.6188]]]]},"properties":{"ID_0":86,"ISO":"DEU","NAME_ENGLI":"Germany","NAME_ISO":"GERMANY","NAME_FAO":"Germany","NAME_LOCAL":"Deutschland","NAME_OBSOL":null,"NAME_VARIA":"Germany","NAME_NONLA":null,"NAME_FRENC":"Allemagne","NAME_SPANI":"Alemania","NAME_RUSSI":"????????","NAME_ARABI":"???????","NAME_CHINE":"??","WASPARTOF":null,"CONTAINS":"East Germany|West Germany|DDR","SOVEREIGN":"Germany","ISO2":"DE","WWW":null,"FIPS":"GM","ISON":276,"VALIDFR":"Unknown","VALIDTO":"Present","EUmember":1},"id":0}
]}